STARLINK-32340          
1 61008U 24158U   26068.39690049 -.00002670  00000+0 -78111-4 0  9995
2 61008  53.1614  67.0145 0001307  89.3267 270.7884 15.30171823 85534
TEVEL2-2                
1 63219U 25052K   26068.64848259  .00020339  00000+0  69428-3 0  9991
2 63219  97.3987 324.7700 0004693 105.7930 254.3828 15.30343745 54855
